STARLINK-5347           
1 57137U 23090AN  25286.86275164 -.00001023  00000+0 -60680-4 0  9990
2 57137  43.0049 339.7161 0001102 263.4642  96.6074 15.02540442128286
STARLINK-5336           
1 57138U 23090AP  25286.87495634 -.00000812  00000+0 -45024-4 0  9998
2 57138  43.0028 339.8069 0001175 271.1508  88.9200 15.02542087128281
STARLINK-5355           
1 57139U 23090AQ  25286.85831042 -.00000078  00000+0  93353-5 0  9996
2 57139  43.0025 339.6805 0001692 273.3917  86.6731 15.02536196128285
STARLINK-5357           
1 57141U 23090AS  25287.18515540 -.00001138  00000+0 -69224-4 0  9996
2 57141  43.0048 337.8344 0000974 272.1111  87.9620 15.02534417128337
STARLINK-5361           
1 57142U 23090AT  25287.18071421 -.00001379  00000+0 -87058-4 0  9994
2 57142  43.0036 337.7970 0000843 274.4309  85.6437 15.02525453128339
STARLINK-5358           
1 57143U 23090AU  25287.17738342  .00000341  00000+0  40359-4 0  9995
2 57143  43.0080 337.7779 0001299 265.0948  94.9747 15.02530296128335
STARLINK-5150           
1 57144U 23090AV  25287.18848206 -.00000359  00000+0 -11470-4 0  9991
2 57144  43.0048 337.8588 0001315 269.8716  90.1976 15.02533338128335
STARLINK-5768           
1 57145U 23090AW  25286.43724751 -.00000064  00000+0  10293-4 0  9991
2 57145  43.0004 341.6791 0000209 189.6126 170.4713 15.02535528128224
STARLINK-5791           
1 57146U 23090AX  25287.17516231 -.00000116  00000+0  64652-5 0  9993
2 57146  43.0052 337.7578 0001268 266.0009  94.0688 15.02533642128332
STARLINK-5765           
1 57147U 23090AY  25286.83167319 -.00000300  00000+0 -71716-5 0  9990
2 57147  43.0039 339.4808 0001151 279.6946  80.3767 15.02534448128470
STARLINK-5788           
1 57148U 23090AZ  25286.55910272  .00000526  00000+0  53990-4 0  9995
2 57148  43.0044 340.8739 0001256 270.8553  89.2145 15.02532400128248
STARLINK-5778           
1 57149U 23090BA  25287.04493253  .00000039  00000+0  17993-4 0  9998
2 57149  43.0048 312.4594 0001151 262.0822  97.9890 15.02539658128800
STARLINK-5780           
1 57150U 23090BB  25287.17183567  .00000224  00000+0  31650-4 0  9990
2 57150  43.0046 337.7328 0000952 267.0990  92.9744 15.02529546128521
STARLINK-5776           
1 57151U 23090BC  25286.43946135  .00000718  00000+0  68224-4 0  9992
2 57151  43.0045 341.6963 0001215 271.4715  88.5988 15.02534738128415
STARLINK-6164           
1 57152U 23090BD  25287.17405380 -.00000545  00000+0 -25268-4 0  9998
2 57152  43.0016 337.7485 0000928 276.6700  83.4036 15.02533550128521
STARLINK-5879           
1 57153U 23090BE  25287.13113986 -.00000549  00000+0 -25558-4 0  9999
2 57153  43.0033 325.2724 0000982 273.9201  86.1529 15.02532317128162
