[{"OBJECT_NAME":"STARLINK-5347","OBJECT_ID":"2023-090AN","EPOCH":"2025-10-13T20:42:21.741696","MEAN_MOTION":15.02540442,"ECCENTRICITY":0.00011027,"INCLINATION":43.0049,"RA_OF_ASC_NODE":339.7161,"ARG_OF_PERICENTER":263.4642,"MEAN_ANOMALY":96.6074,"EPHEMERIS_TYPE":0,"CLASSIFICATION_TYPE":"U","NORAD_CAT_ID":57137,"ELEMENT_SET_NO":999,"REV_AT_EPOCH":12828,"BSTAR":-6.067978e-5,"MEAN_MOTION_DOT":-1.023e-5,"MEAN_MOTION_DDOT":0},{"OBJECT_NAME":"STARLINK-5336","OBJECT_ID":"2023-090AP","EPOCH":"2025-10-13T20:59:56.227776","MEAN_MOTION":15.02542087,"ECCENTRICITY":0.00011756,"INCLINATION":43.0028,"RA_OF_ASC_NODE":339.8069,"ARG_OF_PERICENTER":271.1508,"MEAN_ANOMALY":88.92,"EPHEMERIS_TYPE":0,"CLASSIFICATION_TYPE":"U","NORAD_CAT_ID":57138,"ELEMENT_SET_NO":999,"REV_AT_EPOCH":12828,"BSTAR":-4.5024445e-5,"MEAN_MOTION_DOT":-8.12e-6,"MEAN_MOTION_DDOT":0},{"OBJECT_NAME":"STARLINK-5355","OBJECT_ID":"2023-090AQ","EPOCH":"2025-10-13T20:35:58.020288","MEAN_MOTION":15.02536196,"ECCENTRICITY":0.00016927,"INCLINATION":43.0025,"RA_OF_ASC_NODE":339.6805,"ARG_OF_PERICENTER":273.3917,"MEAN_ANOMALY":86.6731,"EPHEMERIS_TYPE":0,"CLASSIFICATION_TYPE":"U","NORAD_CAT_ID":57139,"ELEMENT_SET_NO":999,"REV_AT_EPOCH":12828,"BSTAR":9.335253e-6,"MEAN_MOTION_DOT":-7.8e-7,"MEAN_MOTION_DDOT":0},{"OBJECT_NAME":"STARLINK-5357","OBJECT_ID":"2023-090AS","EPOCH":"2025-10-14T04:26:37.426560","MEAN_MOTION":15.02534417,"ECCENTRICITY":9.742e-5,"INCLINATION":43.0048,"RA_OF_ASC_NODE":337.8344,"ARG_OF_PERICENTER":272.1111,"MEAN_ANOMALY":87.962,"EPHEMERIS_TYPE":0,"CLASSIFICATION_TYPE":"U","NORAD_CAT_ID":57141,"ELEMENT_SET_NO":999,"REV_AT_EPOCH":12833,"BSTAR":-6.9224304e-5,"MEAN_MOTION_DOT":-1.138e-5,"MEAN_MOTION_DDOT":0},{"OBJECT_NAME":"STARLINK-5361","OBJECT_ID":"2023-090AT","EPOCH":"2025-10-14T04:20:13.707744","MEAN_MOTION":15.02525453,"ECCENTRICITY":8.436e-5,"INCLINATION":43.0036,"RA_OF_ASC_NODE":337.797,"ARG_OF_PERICENTER":274.4309,"MEAN_ANOMALY":85.6437,"EPHEMERIS_TYPE":0,"CLASSIFICATION_TYPE":"U","NORAD_CAT_ID":57142,"ELEMENT_SET_NO":999,"REV_AT_EPOCH":12833,"BSTAR":-8.7058008e-5,"MEAN_MOTION_DOT":-1.379e-5,"MEAN_MOTION_DDOT":0},{"OBJECT_NAME":"STARLINK-5358","OBJECT_ID":"2023-090AU","EPOCH":"2025-10-14T04:15:25.927488","MEAN_MOTION":15.02530296,"ECCENTRICITY":0.00012999,"INCLINATION":43.008,"RA_OF_ASC_NODE":337.7779,"ARG_OF_PERICENTER":265.0948,"MEAN_ANOMALY":94.9747,"EPHEMERIS_TYPE":0,"CLASSIFICATION_TYPE":"U","NORAD_CAT_ID":57143,"ELEMENT_SET_NO":999,"REV_AT_EPOCH":12833,"BSTAR":4.0359159e-5,"MEAN_MOTION_DOT":3.41e-6,"MEAN_MOTION_DDOT":0},{"OBJECT_NAME":"STARLINK-5150","OBJECT_ID":"2023-090AV","EPOCH":"2025-10-14T04:31:24.849984","MEAN_MOTION":15.02533338,"ECCENTRICITY":0.00013154,"INCLINATION":43.0048,"RA_OF_ASC_NODE":337.8588,"ARG_OF_PERICENTER":269.8716,"MEAN_ANOMALY":90.1976,"EPHEMERIS_TYPE":0,"CLASSIFICATION_TYPE":"U","NORAD_CAT_ID":57144,"ELEMENT_SET_NO":999,"REV_AT_EPOCH":12833,"BSTAR":-1.1469785e-5,"MEAN_MOTION_DOT":-3.59e-6,"MEAN_MOTION_DDOT":0},{"OBJECT_NAME":"STARLINK-5768","OBJECT_ID":"2023-090AW","EPOCH":"2025-10-13T10:29:38.184864","MEAN_MOTION":15.02535528,"ECCENTRICITY":2.096e-5,"INCLINATION":43.0004,"RA_OF_ASC_NODE":341.6791,"ARG_OF_PERICENTER":189.6126,"MEAN_ANOMALY":170.4713,"EPHEMERIS_TYPE":0,"CLASSIFICATION_TYPE":"U","NORAD_CAT_ID":57145,"ELEMENT_SET_NO":999,"REV_AT_EPOCH":12822,"BSTAR":1.029272e-5,"MEAN_MOTION_DOT":-6.4e-7,"MEAN_MOTION_DDOT":0},{"OBJECT_NAME":"STARLINK-5791","OBJECT_ID":"2023-090AX","EPOCH":"2025-10-14T04:12:14.023584","MEAN_MOTION":15.02533642,"ECCENTRICITY":0.00012685,"INCLINATION":43.0052,"RA_OF_ASC_NODE":337.7578,"ARG_OF_PERICENTER":266.0009,"MEAN_ANOMALY":94.0688,"EPHEMERIS_TYPE":0,"CLASSIFICATION_TYPE":"U","NORAD_CAT_ID":57146,"ELEMENT_SET_NO":999,"REV_AT_EPOCH":12833,"BSTAR":6.465217e-6,"MEAN_MOTION_DOT":-1.16e-6,"MEAN_MOTION_DDOT":0},{"OBJECT_NAME":"STARLINK-5765","OBJECT_ID":"2023-090AY","EPOCH":"2025-10-13T19:57:36.563616","MEAN_MOTION":15.02534448,"ECCENTRICITY":0.00011511,"INCLINATION":43.0039,"RA_OF_ASC_NODE":339.4808,"ARG_OF_PERICENTER":279.6946,"MEAN_ANOMALY":80.3767,"EPHEMERIS_TYPE":0,"CLASSIFICATION_TYPE":"U","NORAD_CAT_ID":57147,"ELEMENT_SET_NO":999,"REV_AT_EPOCH":12847,"BSTAR":-7.171627e-6,"MEAN_MOTION_DOT":-3.0e-6,"MEAN_MOTION_DDOT":0},{"OBJECT_NAME":"STARLINK-5788","OBJECT_ID":"2023-090AZ","EPOCH":"2025-10-13T13:25:06.475008","MEAN_MOTION":15.025324,"ECCENTRICITY":0.0001256,"INCLINATION":43.0044,"RA_OF_ASC_NODE":340.8739,"ARG_OF_PERICENTER":270.8553,"MEAN_ANOMALY":89.2145,"EPHEMERIS_TYPE":0,"CLASSIFICATION_TYPE":"U","NORAD_CAT_ID":57148,"ELEMENT_SET_NO":999,"REV_AT_EPOCH":12824,"BSTAR":5.3989525e-5,"MEAN_MOTION_DOT":5.26e-6,"MEAN_MOTION_DDOT":0},{"OBJECT_NAME":"STARLINK-5778","OBJECT_ID":"2023-090BA","EPOCH":"2025-10-14T01:04:42.170592","MEAN_MOTION":15.02539658,"ECCENTRICITY":0.00011516,"INCLINATION":43.0048,"RA_OF_ASC_NODE":312.4594,"ARG_OF_PERICENTER":262.0822,"MEAN_ANOMALY":97.989,"EPHEMERIS_TYPE":0,"CLASSIFICATION_TYPE":"U","NORAD_CAT_ID":57149,"ELEMENT_SET_NO":999,"REV_AT_EPOCH":12880,"BSTAR":1.7992988e-5,"MEAN_MOTION_DOT":3.9e-7,"MEAN_MOTION_DDOT":0},{"OBJECT_NAME":"STARLINK-5780","OBJECT_ID":"2023-090BB","EPOCH":"2025-10-14T04:07:26.601888","MEAN_MOTION":15.02529546,"ECCENTRICITY":9.529e-5,"INCLINATION":43.0046,"RA_OF_ASC_NODE":337.7328,"ARG_OF_PERICENTER":267.099,"MEAN_ANOMALY":92.9744,"EPHEMERIS_TYPE":0,"CLASSIFICATION_TYPE":"U","NORAD_CAT_ID":57150,"ELEMENT_SET_NO":999,"REV_AT_EPOCH":12852,"BSTAR":3.1650136e-5,"MEAN_MOTION_DOT":2.24e-6,"MEAN_MOTION_DDOT":0},{"OBJECT_NAME":"STARLINK-5776","OBJECT_ID":"2023-090BC","EPOCH":"2025-10-13T10:32:49.460640","MEAN_MOTION":15.02534738,"ECCENTRICITY":0.00012157,"INCLINATION":43.0045,"RA_OF_ASC_NODE":341.6963,"ARG_OF_PERICENTER":271.4715,"MEAN_ANOMALY":88.5988,"EPHEMERIS_TYPE":0,"CLASSIFICATION_TYPE":"U","NORAD_CAT_ID":57151,"ELEMENT_SET_NO":999,"REV_AT_EPOCH":12841,"BSTAR":6.8223604e-5,"MEAN_MOTION_DOT":7.18e-6,"MEAN_MOTION_DDOT":0},{"OBJECT_NAME":"STARLINK-6164","OBJECT_ID":"2023-090BD","EPOCH":"2025-10-14T04:10:38.248320","MEAN_MOTION":15.0253355,"ECCENTRICITY":9.289e-5,"INCLINATION":43.0016,"RA_OF_ASC_NODE":337.7485,"ARG_OF_PERICENTER":276.67,"MEAN_ANOMALY":83.4036,"EPHEMERIS_TYPE":0,"CLASSIFICATION_TYPE":"U","NORAD_CAT_ID":57152,"ELEMENT_SET_NO":999,"REV_AT_EPOCH":12852,"BSTAR":-2.5267697e-5,"MEAN_MOTION_DOT":-5.45e-6,"MEAN_MOTION_DDOT":0},{"OBJECT_NAME":"STARLINK-5879","OBJECT_ID":"2023-090BE","EPOCH":"2025-10-14T03:08:50.483904","MEAN_MOTION":15.02532317,"ECCENTRICITY":9.828e-5,"INCLINATION":43.0033,"RA_OF_ASC_NODE":325.2724,"ARG_OF_PERICENTER":273.9201,"MEAN_ANOMALY":86.1529,"EPHEMERIS_TYPE":0,"CLASSIFICATION_TYPE":"U","NORAD_CAT_ID":57153,"ELEMENT_SET_NO":999,"REV_AT_EPOCH":12816,"BSTAR":-2.5558402e-5,"MEAN_MOTION_DOT":-5.49e-6,"MEAN_MOTION_DDOT":0}]
